{
  "links" : {
    "next" : "https://api.nasa.gov/neo/rest/v1/feed?start_date=2002-07-23&end_date=2002-07-23&detailed=true&api_key=t0TVs3DtDT2H8Oy2Zy8m2eVrNsAVKAexjcZXUckd",
    "prev" : "https://api.nasa.gov/neo/rest/v1/feed?start_date=2002-07-21&end_date=2002-07-21&detailed=true&api_key=t0TVs3DtDT2H8Oy2Zy8m2eVrNsAVKAexjcZXUckd",
    "self" : "https://api.nasa.gov/neo/rest/v1/feed?start_date=2002-07-22&end_date=2002-07-22&detailed=true&api_key=t0TVs3DtDT2H8Oy2Zy8m2eVrNsAVKAexjcZXUckd"
  },
  "element_count" : 5,
  "near_earth_objects" : {
    "2002-07-22" : [ {
      "links" : {
        "self" : "https://api.nasa.gov/neo/rest/v1/neo/2475534?api_key=t0TVs3DtDT2H8Oy2Zy8m2eVrNsAVKAexjcZXUckd"
      },
      "neo_reference_id" : "2475534",
      "name" : "475534 (2006 TS7)",
      "nasa_jpl_url" : "http://ssd.jpl.nasa.gov/sbdb.cgi?sstr=2475534",
      "absolute_magnitude_h" : 21.2,
      "estimated_diameter" : {
        "kilometers" : {
          "estimated_diameter_min" : 0.1529519353,
          "estimated_diameter_max" : 0.3420109247
        },
        "meters" : {
          "estimated_diameter_min" : 152.9519353442,
          "estimated_diameter_max" : 342.0109247198
        },
        "miles" : {
          "estimated_diameter_min" : 0.095039897,
          "estimated_diameter_max" : 0.2125156703
        },
        "feet" : {
          "estimated_diameter_min" : 501.8108275547,
          "estimated_diameter_max" : 1122.0831222578
        }
      },
      "is_potentially_hazardous_asteroid" : true,
      "close_approach_data" : [ {
        "close_approach_date" : "2002-07-22",
        "epoch_date_close_approach" : 1027321200000,
        "relative_velocity" : {
          "kilometers_per_second" : "20.9817175264",
          "kilometers_per_hour" : "75534.1830949428",
          "miles_per_hour" : "46934.0039347438"
        },
        "miss_distance" : {
          "astronomical" : "0.1417239009",
          "lunar" : "55.1305961609",
          "kilometers" : "21201594",
          "miles" : "13174060"
        },
        "orbiting_body" : "Earth"
      } ],
      "orbital_data" : {
        "orbit_id" : "39",
        "orbit_determination_date" : "2017-09-27 06:52:31",
        "orbit_uncertainty" : "0",
        "minimum_orbit_intersection" : ".0152539",
        "jupiter_tisserand_invariant" : "6.187",
        "epoch_osculation" : "2458000.5",
        "eccentricity" : ".5802094329575874",
        "semi_major_axis" : ".9468711423468876",
        "inclination" : "5.47144207658483",
        "ascending_node_longitude" : "225.2614385413687",
        "orbital_period" : "336.5384949021297",
        "perihelion_distance" : ".3974875737618969",
        "perihelion_argument" : "299.9047645298344",
        "aphelion_distance" : "1.496254710931878",
        "perihelion_time" : "2458141.531926132268",
        "mean_anomaly" : "209.1361488308148",
        "mean_motion" : "1.069714179665221",
        "equinox" : "J2000"
      }
    }, {
      "links" : {
        "self" : "https://api.nasa.gov/neo/rest/v1/neo/3771017?api_key=t0TVs3DtDT2H8Oy2Zy8m2eVrNsAVKAexjcZXUckd"
      },
      "neo_reference_id" : "3771017",
      "name" : "(2017 EV2)",
      "nasa_jpl_url" : "http://ssd.jpl.nasa.gov/sbdb.cgi?sstr=3771017",
      "absolute_magnitude_h" : 20.7,
      "estimated_diameter" : {
        "kilometers" : {
          "estimated_diameter_min" : 0.1925550782,
          "estimated_diameter_max" : 0.4305662442
        },
        "meters" : {
          "estimated_diameter_min" : 192.5550781879,
          "estimated_diameter_max" : 430.566244241
        },
        "miles" : {
          "estimated_diameter_min" : 0.1196481415,
          "estimated_diameter_max" : 0.2675413778
        },
        "feet" : {
          "estimated_diameter_min" : 631.7424027221,
          "estimated_diameter_max" : 1412.6189567557
        }
      },
      "is_potentially_hazardous_asteroid" : false,
      "close_approach_data" : [ {
        "close_approach_date" : "2002-07-22",
        "epoch_date_close_approach" : 1027321200000,
        "relative_velocity" : {
          "kilometers_per_second" : "12.7230562577",
          "kilometers_per_hour" : "45803.0025275414",
          "miles_per_hour" : "28460.2045427382"
        },
        "miss_distance" : {
          "astronomical" : "0.3710910937",
          "lunar" : "144.3544311523",
          "kilometers" : "55514440",
          "miles" : "34495072"
        },
        "orbiting_body" : "Earth"
      } ],
      "orbital_data" : {
        "orbit_id" : "7",
        "orbit_determination_date" : "2017-04-24 06:22:36",
        "orbit_uncertainty" : "4",
        "minimum_orbit_intersection" : ".115952",
        "jupiter_tisserand_invariant" : "5.852",
        "epoch_osculation" : "2458000.5",
        "eccentricity" : ".5577268380892703",
        "semi_major_axis" : "1.010317012892565",
        "inclination" : "16.48988169605545",
        "ascending_node_longitude" : "3.184838900422558",
        "orbital_period" : "370.9239928798369",
        "perihelion_distance" : ".4468360998241981",
        "perihelion_argument" : "32.18991652975657",
        "aphelion_distance" : "1.573797925960931",
        "perihelion_time" : "2458087.168283030514",
        "mean_anomaly" : "275.8841636294669",
        "mean_motion" : ".970549241651845",
        "equinox" : "J2000"
      }
    } ]
  }
}